{
  "type": "FeatureCollection",
  "features": [
    {
      "type": "Feature",
      "geometry": {
        "type": "MultiLineString",
        "coordinates": [
          [
            [
              -1.5272586,
              54.9851321
            ],
            [
              -1.5291697,
              54.9866458
            ],
            [
              -1.5305922,
              54.987234
            ],
            [
              -1.5310818,
              54.9874322
            ],
            [
              -1.5321872,
              54.9880046
            ],
            [
              -1.5338255,
              54.9876379
            ],
            [
              -1.5368846,
              54.9869223
            ],
            [
              -1.5399346,
              54.9863757
            ],
            [
              -1.5435656,
              54.9854108
            ],
            [
              -1.54393,
              54.9853368
            ],
            [
              -1.5604174,
              54.9810593
            ],
            [
              -1.5629094,
              54.98045
            ],
            [
              -1.5632665,
              54.9803704
            ],
            [
              -1.5740896,
              54.9777424
            ],
            [
              -1.5861838,
              54.9760372
            ],
            [
              -1.5880505,
              54.9758203
            ],
            [
              -1.5884291,
              54.9757756
            ],
            [
              -1.5897204,
              54.9756229
            ],
            [
              -1.5946878,
              54.9749568
            ],
            [
              -1.5961096,
              54.9742802
            ],
            [
              -1.5976473,
              54.973754
            ],
            [
              -1.5996828,
              54.972987
            ],
            [
              -1.6017526,
              54.9721656
            ],
            [
              -1.6038054,
              54.9712928
            ],
            [
              -1.6047281,
              54.9709695
            ],
            [
              -1.6056615,
              54.9705507
            ],
            [
              -1.6065622,
              54.9702237
            ],
            [
              -1.6071478,
              54.9701523
            ],
            [
              -1.6089989,
              54.9700695
            ],
            [
              -1.6105168,
              54.9688126
            ],
            [
              -1.6166386,
              54.969679
            ],
            [
              -1.6278453,
              54.9712661
            ],
            [
              -1.6424841,
              54.9736097
            ],
            [
              -1.6512847,
              54.9751121
            ],
            [
              -1.6627209,
              54.9769236
            ],
            [
              -1.6645591,
              54.9772976
            ],
            [
              -1.6690636,
              54.9782048
            ],
            [
              -1.6856333,
              54.9824662
            ],
            [
              -1.6860745,
              54.9825796
            ],
            [
              -1.6959862,
              54.9849667
            ],
            [
              -1.6968883,
              54.9851932
            ],
            [
              -1.7009289,
              54.9862076
            ],
            [
              -1.712777,
              54.9887301
            ],
            [
              -1.7288299,
              54.9919016
            ],
            [
              -1.7319619,
              54.9925455
            ],
            [
              -1.7386825,
              54.9939061
            ],
            [
              -1.7421928,
              54.9946167
            ],
            [
              -1.7463961,
              54.9954677
            ],
            [
              -1.7472138,
              54.9956332
            ],
            [
              -1.7670921,
              54.9960026
            ],
            [
              -1.785075,
              54.9961017
            ],
            [
              -1.7856711,
              54.9960964
            ],
            [
              -1.7887142,
              54.996555
            ],
            [
              -1.8007412,
              54.998399
            ],
            [
              -1.8116894,
              55.0003156
            ],
            [
              -1.8186405,
              55.0010485
            ],
            [
              -1.824613,
              55.0018454
            ],
            [
              -1.8346427,
              55.0036777
            ],
            [
              -1.8438125,
              55.003744
            ],
            [
              -1.861375,
              55.0065125
            ],
            [
              -1.878772,
              55.0092353
            ],
            [
              -1.8805278,
              55.0095102
            ],
            [
              -1.9075433,
              55.0084651
            ],
            [
              -1.9258055,
              55.0097549
            ],
            [
              -1.9352909,
              55.0104539
            ],
            [
              -1.9497604,
              55.0115238
            ],
            [
              -1.9652679,
              55.0124239
            ],
            [
              -1.9742427,
              55.0128963
            ],
            [
              -1.9811799,
              55.0131411
            ],
            [
              -1.9827128,
              55.0129309
            ],
            [
              -1.9890657,
              55.0117565
            ],
            [
              -1.9925724,
              55.0111505
            ],
            [
              -1.9959191,
              55.0110731
            ],
            [
              -2.0046131,
              55.0107393
            ],
            [
              -2.0069551,
              55.010652
            ],
            [
              -2.0291693,
              55.0135203
            ],
            [
              -2.0503751,
              55.0161377
            ],
            [
              -2.0622468,
              55.0176586
            ],
            [
              -2.0637989,
              55.0178465
            ],
            [
              -2.0719782,
              55.0187546
            ],
            [
              -2.0793151,
              55.0189367
            ],
            [
              -2.0915017,
              55.0190247
            ],
            [
              -2.1051349,
              55.0192608
            ],
            [
              -2.1119309,
              55.0205016
            ],
            [
              -2.1339655,
              55.0247751
            ],
            [
              -2.1363456,
              55.0253373
            ],
            [
              -2.1385404,
              55.0258557
            ],
            [
              -2.1406356,
              55.0263506
            ],
            [
              -2.158041,
              55.0307032
            ],
            [
              -2.1708727,
              55.0334333
            ],
            [
              -2.1818725,
              55.0358536
            ],
            [
              -2.1840212,
              55.036354
            ],
            [
              -2.1844983,
              55.0364707
            ],
            [
              -2.1851523,
              55.0366115
            ],
            [
              -2.1869356,
              55.0370294
            ],
            [
              -2.1874142,
              55.0371433
            ],
            [
              -2.1881472,
              55.0373073
            ],
            [
              -2.1949055,
              55.0386298
            ],
            [
              -2.1978639,
              55.0385169
            ],
            [
              -2.1981734,
              55.0384457
            ],
            [
              -2.1993327,
              55.0379718
            ],
            [
              -2.2267807,
              55.0352779
            ],
            [
              -2.2332823,
              55.0346261
            ],
            [
              -2.261231,
              55.0312689
            ],
            [
              -2.2662869,
              55.0309959
            ],
            [
              -2.2663683,
              55.0309927
            ],
            [
              -2.269757,
              55.0308045
            ],
            [
              -2.272686,
              55.0302663
            ],
            [
              -2.2737388,
              55.0300761
            ],
            [
              -2.2776969,
              55.0294401
            ],
            [
              -2.2788799,
              55.0293627
            ],
            [
              -2.2833465,
              55.0290282
            ],
            [
              -2.2841237,
              55.0289985
            ],
            [
              -2.2842239,
              55.0289731
            ],
            [
              -2.2847569,
              55.0289406
            ],
            [
              -2.2849488,
              55.0289242
            ],
            [
              -2.2851503,
              55.0289262
            ],
            [
              -2.2852631,
              55.0289371
            ],
            [
              -2.2856437,
              55.0289325
            ],
            [
              -2.2878599,
              55.0288092
            ],
            [
              -2.2910249,
              55.0284157
            ],
            [
              -2.2943162,
              55.0281163
            ],
            [
              -2.2945762,
              55.0280775
            ],
            [
              -2.2966722,
              55.0276691
            ],
            [
              -2.2970384,
              55.0274286
            ],
            [
              -2.2976674,
              55.0273485
            ],
            [
              -2.2979603,
              55.0269742
            ],
            [
              -2.3007131,
              55.0267369
            ],
            [
              -2.3029661,
              55.0263679
            ],
            [
              -2.3060346,
              55.0259435
            ],
            [
              -2.3064904,
              55.0259025
            ],
            [
              -2.3068067,
              55.0258558
            ],
            [
              -2.3082198,
              55.0256677
            ],
            [
              -2.3085817,
              55.0256093
            ],
            [
              -2.3096109,
              55.0254437
            ],
            [
              -2.3100129,
              55.0253503
            ],
            [
              -2.310348,
              55.0253319
            ],
            [
              -2.3107348,
              55.0252646
            ],
            [
              -2.3108824,
              55.025237
            ],
            [
              -2.3112328,
              55.0251715
            ],
            [
              -2.3115494,
              55.0251074
            ],
            [
              -2.3117913,
              55.025074
            ],
            [
              -2.3121234,
              55.0250512
            ],
            [
              -2.3125323,
              55.0250031
            ],
            [
              -2.3131639,
              55.0248614
            ],
            [
              -2.3146713,
              55.0245044
            ],
            [
              -2.3152671,
              55.024051
            ],
            [
              -2.3151443,
              55.0237896
            ],
            [
              -2.3151917,
              55.0234666
            ],
            [
              -2.3153873,
              55.0230859
            ],
            [
              -2.3154499,
              55.0228706
            ],
            [
              -2.3154591,
              55.0225504
            ],
            [
              -2.3160536,
              55.0215916
            ],
            [
              -2.3160432,
              55.0213633
            ],
            [
              -2.3159392,
              55.0208585
            ],
            [
              -2.3171748,
              55.0185017
            ],
            [
              -2.3175836,
              55.0183377
            ],
            [
              -2.3180061,
              55.0181971
            ],
            [
              -2.3183913,
              55.0181006
            ],
            [
              -2.3188489,
              55.0180413
            ],
            [
              -2.3191048,
              55.0179938
            ],
            [
              -2.3194326,
              55.0177684
            ],
            [
              -2.3197738,
              55.0175945
            ],
            [
              -2.320125,
              55.0175107
            ],
            [
              -2.3206258,
              55.0174928
            ],
            [
              -2.3216608,
              55.017301
            ],
            [
              -2.3223667,
              55.0171214
            ],
            [
              -2.3230846,
              55.0169687
            ],
            [
              -2.32346,
              55.016948
            ],
            [
              -2.3245923,
              55.0167285
            ],
            [
              -2.3251963,
              55.0165516
            ],
            [
              -2.3259518,
              55.0161948
            ],
            [
              -2.3269773,
              55.0156166
            ],
            [
              -2.3282647,
              55.0151122
            ],
            [
              -2.3292529,
              55.0139524
            ],
            [
              -2.3317351,
              55.0136287
            ],
            [
              -2.3355496,
              55.0131314
            ],
            [
              -2.3364723,
              55.0128423
            ],
            [
              -2.3373146,
              55.0124369
            ],
            [
              -2.3375698,
              55.0123917
            ],
            [
              -2.3379036,
              55.0123326
            ],
            [
              -2.3381167,
              55.012291
            ],
            [
              -2.3388047,
              55.0122396
            ],
            [
              -2.3393683,
              55.0121599
            ],
            [
              -2.3401395,
              55.0124219
            ],
            [
              -2.3412412,
              55.012206
            ],
            [
              -2.3434782,
              55.0119441
            ],
            [
              -2.3435747,
              55.0118968
            ],
            [
              -2.3443631,
              55.0116708
            ],
            [
              -2.344609,
              55.0116185
            ],
            [
              -2.3448612,
              55.0115775
            ],
            [
              -2.3468243,
              55.0112734
            ],
            [
              -2.3492554,
              55.0108816
            ],
            [
              -2.3506032,
              55.0106527
            ],
            [
              -2.3533058,
              55.0101477
            ],
            [
              -2.355119,
              55.0094155
            ],
            [
              -2.357946,
              55.005927
            ],
            [
              -2.3596197,
              55.0058532
            ],
            [
              -2.3634768,
              55.0053302
            ],
            [
              -2.3673874,
              55.0050533
            ],
            [
              -2.3705685,
              55.0046687
            ],
            [
              -2.3720115,
              55.0043149
            ],
            [
              -2.3726231,
              55.0041149
            ],
            [
              -2.3731059,
              55.0038565
            ],
            [
              -2.373637,
              55.0037119
            ],
            [
              -2.3743889,
              55.0034189
            ],
            [
              -2.3748463,
              55.003759
            ],
            [
              -2.3751673,
              55.0038064
            ],
            [
              -2.3753502,
              55.0038195
            ],
            [
              -2.3756241,
              55.0038029
            ],
            [
              -2.375753,
              55.0037779
            ],
            [
              -2.3758709,
              55.0037481
            ],
            [
              -2.3759072,
              55.0037397
            ],
            [
              -2.3760293,
              55.0037107
            ],
            [
              -2.3764103,
              55.0036002
            ],
            [
              -2.3767057,
              55.0036524
            ],
            [
              -2.3776281,
              55.0036196
            ],
            [
              -2.3786581,
              55.0034965
            ],
            [
              -2.3789585,
              55.0033858
            ],
            [
              -2.3792803,
              55.0030904
            ],
            [
              -2.3812115,
              55.0027643
            ],
            [
              -2.3826277,
              55.0026781
            ],
            [
              -2.3846907,
              55.0022819
            ],
            [
              -2.3855285,
              55.0022602
            ],
            [
              -2.3859827,
              55.0021681
            ],
            [
              -2.3860732,
              55.0021471
            ],
            [
              -2.3861459,
              55.0021062
            ],
            [
              -2.3862184,
              55.0020554
            ],
            [
              -2.3862686,
              55.001992
            ],
            [
              -2.3862928,
              55.0019249
            ],
            [
              -2.3863027,
              55.0018318
            ],
            [
              -2.3863043,
              55.0018
            ],
            [
              -2.3862266,
              55.0017987
            ],
            [
              -2.3862137,
              55.0016364
            ],
            [
              -2.3863477,
              55.0016198
            ],
            [
              -2.3866772,
              55.0014408
            ],
            [
              -2.3867005,
              55.0014092
            ],
            [
              -2.387187,
              55.0013658
            ],
            [
              -2.3872617,
              55.0013588
            ],
            [
              -2.3877498,
              55.0013164
            ],
            [
              -2.3890865,
              55.0022597
            ],
            [
              -2.3922193,
              55.0022412
            ],
            [
              -2.399075,
              55.0022166
            ],
            [
              -2.3996329,
              55.0023089
            ],
            [
              -2.4010277,
              55.0023212
            ],
            [
              -2.4024868,
              55.0021612
            ],
            [
              -2.4048472,
              55.0020136
            ],
            [
              -2.4090743,
              55.0013859
            ],
            [
              -2.4102759,
              55.0010721
            ],
            [
              -2.410866,
              55.0005613
            ],
            [
              -2.4129903,
              54.9992444
            ],
            [
              -2.4157092,
              54.9990291
            ],
            [
              -2.4169365,
              54.9989554
            ],
            [
              -2.4175449,
              54.9988156
            ],
            [
              -2.41857,
              54.9986131
            ],
            [
              -2.4197328,
              54.9983632
            ],
            [
              -2.4199601,
              54.9983093
            ],
            [
              -2.4215957,
              54.9978715
            ],
            [
              -2.4223681,
              54.997676
            ],
            [
              -2.4224931,
              54.9976553
            ],
            [
              -2.4225808,
              54.9976356
            ],
            [
              -2.4227885,
              54.997574
            ],
            [
              -2.422994,
              54.9975063
            ],
            [
              -2.4238747,
              54.9972843
            ],
            [
              -2.4242861,
              54.9971827
            ],
            [
              -2.4245828,
              54.9971044
            ],
            [
              -2.4247513,
              54.997059
            ],
            [
              -2.4248612,
              54.9970196
            ],
            [
              -2.4257147,
              54.996555
            ],
            [
              -2.4264336,
              54.9963366
            ],
            [
              -2.4274314,
              54.9961335
            ],
            [
              -2.4277425,
              54.9959181
            ],
            [
              -2.4295718,
              54.9957242
            ],
            [
              -2.4325973,
              54.9960596
            ],
            [
              -2.4332678,
              54.9960319
            ],
            [
              -2.4339062,
              54.9959273
            ],
            [
              -2.4353439,
              54.9958227
            ],
            [
              -2.4355906,
              54.9957365
            ],
            [
              -2.4358481,
              54.9957027
            ],
            [
              -2.4360842,
              54.9955949
            ],
            [
              -2.4363309,
              54.9952903
            ],
            [
              -2.4365616,
              54.995238
            ],
            [
              -2.4368137,
              54.9953457
            ],
            [
              -2.437318,
              54.9954103
            ],
            [
              -2.4376613,
              54.9953672
            ],
            [
              -2.4379617,
              54.9953949
            ],
            [
              -2.4385786,
              54.9952626
            ],
            [
              -2.4389166,
              54.9952226
            ],
            [
              -2.439335,
              54.9952134
            ],
            [
              -2.4397588,
              54.9950934
            ],
            [
              -2.4403596,
              54.9950164
            ],
            [
              -2.4415773,
              54.9949518
            ],
            [
              -2.4425268,
              54.9948041
            ],
            [
              -2.443192,
              54.9947549
            ],
            [
              -2.4439645,
              54.9945794
            ],
            [
              -2.4457455,
              54.9941025
            ],
            [
              -2.4460137,
              54.9940194
            ],
            [
              -2.4462926,
              54.9934347
            ],
            [
              -2.4465555,
              54.993447
            ],
            [
              -2.4512225,
              54.992853
            ],
            [
              -2.4531323,
              54.993527
            ],
            [
              -2.4558199,
              54.9945579
            ],
            [
              -2.4569839,
              54.9950287
            ],
            [
              -2.4573004,
              54.9951057
            ],
            [
              -2.4573058,
              54.995158
            ],
            [
              -2.4575096,
              54.9952195
            ],
            [
              -2.4581909,
              54.995278
            ],
            [
              -2.4588615,
              54.9953734
            ],
            [
              -2.4611521,
              54.9955642
            ],
            [
              -2.4635086,
              54.9953111
            ],
            [
              -2.4640167,
              54.9952565
            ],
            [
              -2.4658299,
              54.995318
            ],
            [
              -2.4739838,
              54.9953303
            ],
            [
              -2.4759579,
              54.9952811
            ],
            [
              -2.4785328,
              54.9954596
            ],
            [
              -2.4818051,
              54.9951764
            ],
            [
              -2.4838543,
              54.9955026
            ],
            [
              -2.4869549,
              54.9962781
            ],
            [
              -2.4884784,
              54.9962042
            ],
            [
              -2.4900556,
              54.9960135
            ],
            [
              -2.4905491,
              54.9960873
            ],
            [
              -2.4920189,
              54.9959581
            ],
            [
              -2.4934673,
              54.9957488
            ],
            [
              -2.4937141,
              54.9950595
            ],
            [
              -2.4941111,
              54.9949795
            ],
            [
              -2.4950767,
              54.9952503
            ],
            [
              -2.4956668,
              54.9951703
            ],
            [
              -2.4963749,
              54.9950595
            ],
            [
              -2.4967075,
              54.9948441
            ],
            [
              -2.4963534,
              54.9941732
            ],
            [
              -2.49704,
              54.9942471
            ],
            [
              -2.4982417,
              54.9942656
            ],
            [
              -2.4996686,
              54.9939517
            ],
            [
              -2.5003123,
              54.9929361
            ],
            [
              -2.5011331,
              54.9927084
            ],
            [
              -2.5018841,
              54.9931054
            ],
            [
              -2.5023615,
              54.9933639
            ],
            [
              -2.5026029,
              54.9933947
            ],
            [
              -2.5039709,
              54.9932408
            ],
            [
              -2.5042284,
              54.9932777
            ],
            [
              -2.5064921,
              54.9926899
            ],
            [
              -2.5070393,
              54.9924776
            ],
            [
              -2.5075328,
              54.9918528
            ],
            [
              -2.5084716,
              54.9912866
            ],
            [
              -2.5092602,
              54.9908126
            ],
            [
              -2.5102419,
              54.9908096
            ],
            [
              -2.5107595,
              54.9907234
            ],
            [
              -2.5109929,
              54.9906541
            ],
            [
              -2.5114462,
              54.9905941
            ],
            [
              -2.5123903,
              54.9901817
            ],
            [
              -2.5128329,
              54.990074
            ],
            [
              -2.5132245,
              54.9900463
            ],
            [
              -2.5135329,
              54.9900586
            ],
            [
              -2.5136349,
              54.9900201
            ],
            [
              -2.5139058,
              54.9899709
            ],
            [
              -2.5141364,
              54.9898986
            ],
            [
              -2.5146836,
              54.9896247
            ],
            [
              -2.5149062,
              54.9895831
            ],
            [
              -2.5149626,
              54.9892415
            ],
            [
              -2.5147265,
              54.9891676
            ],
            [
              -2.5146782,
              54.9891907
            ],
            [
              -2.5141418,
              54.9889722
            ],
            [
              -2.5136161,
              54.9885167
            ],
            [
              -2.5196243,
              54.9878826
            ],
            [
              -2.5315762,
              54.9879811
            ],
            [
              -2.5339345,
              54.9879411
            ],
            [
              -2.5439143,
              54.9877718
            ],
            [
              -2.5532591,
              54.9883443
            ],
            [
              -2.5641275,
              54.9897909
            ],
            [
              -2.5731397,
              54.9891876
            ],
            [
              -2.5766158,
              54.9897047
            ],
            [
              -2.5793839,
              54.989877
            ],
            [
              -2.5887394,
              54.9918467
            ],
            [
              -2.594456,
              54.9909562
            ],
            [
              -2.6024938,
              54.9903202
            ],
            [
              -2.6198092,
              54.9863134
            ],
            [
              -2.6329269,
              54.9841682
            ],
            [
              -2.6374453,
              54.9825318
            ],
            [
              -2.6564598,
              54.9776137
            ],
            [
              -2.672596,
              54.9739684
            ],
            [
              -2.6831532,
              54.9743379
            ],
            [
              -2.6948691,
              54.9736729
            ],
            [
              -2.709117,
              54.972195
            ],
            [
              -2.7324391,
              54.9718436
            ],
            [
              -2.734904,
              54.971535
            ],
            [
              -2.7468541,
              54.9716459
            ],
            [
              -2.7664089,
              54.9670588
            ],
            [
              -2.7735115,
              54.9635235
            ],
            [
              -2.7781678,
              54.9599262
            ],
            [
              -2.7813864,
              54.9576593
            ],
            [
              -2.7857852,
              54.9553676
            ],
            [
              -2.7993096,
              54.9479978
            ],
            [
              -2.8105813,
              54.9475224
            ],
            [
              -2.825925,
              54.9444569
            ],
            [
              -2.8338096,
              54.9428182
            ],
            [
              -2.8417619,
              54.9413359
            ],
            [
              -2.8516881,
              54.9395537
            ],
            [
              -2.8703526,
              54.9361732
            ],
            [
              -2.8801969,
              54.9343952
            ],
            [
              -2.8932953,
              54.9259824
            ],
            [
              -2.9028677,
              54.9225617
            ],
            [
              -2.9093324,
              54.9202194
            ],
            [
              -2.9160596,
              54.9178294
            ],
            [
              -2.9340838,
              54.9065857
            ],
            [
              -2.9371973,
              54.9045943
            ],
            [
              -2.9409882,
              54.9022061
            ],
            [
              -2.9459628,
              54.9011197
            ],
            [
              -2.9491186,
              54.9004461
            ],
            [
              -2.9579745,
              54.8987921
            ],
            [
              -2.9662757,
              54.8987972
            ],
            [
              -2.9686035,
              54.8991138
            ],
            [
              -2.9730034,
              54.8999575
            ],
            [
              -2.9770914,
              54.901094
            ],
            [
              -2.9785836,
              54.9016823
            ],
            [
              -2.9798699,
              54.9024004
            ],
            [
              -2.9812643,
              54.903611
            ],
            [
              -2.982359,
              54.9050405
            ],
            [
              -2.983655,
              54.9072061
            ],
            [
              -2.9851009,
              54.9089611
            ],
            [
              -2.9856641,
              54.9103634
            ],
            [
              -2.9862152,
              54.9112202
            ],
            [
              -2.9891181,
              54.9131738
            ],
            [
              -2.9903841,
              54.9137863
            ],
            [
              -2.9911522,
              54.9139338
            ],
            [
              -2.9980423,
              54.9129911
            ],
            [
              -3.0002976,
              54.9143537
            ],
            [
              -3.0017138,
              54.9146127
            ],
            [
              -3.0039668,
              54.9153897
            ],
            [
              -3.0061341,
              54.9158214
            ],
            [
              -3.0083227,
              54.9164997
            ],
            [
              -3.0098677,
              54.9176714
            ],
            [
              -3.0128288,
              54.9208901
            ],
            [
              -3.0146313,
              54.921667
            ],
            [
              -3.0254889,
              54.9212354
            ],
            [
              -3.0401015,
              54.9208408
            ],
            [
              -3.0415607,
              54.9208778
            ],
            [
              -3.0447149,
              54.921408
            ],
            [
              -3.0482125,
              54.9217163
            ],
            [
              -3.0522466,
              54.921667
            ],
            [
              -3.059907,
              54.9210258
            ],
            [
              -3.0655718,
              54.9211737
            ],
            [
              -3.0810643,
              54.9229988
            ],
            [
              -3.1294728,
              54.9257116
            ],
            [
              -3.1386996,
              54.9265747
            ],
            [
              -3.1501151,
              54.9287694
            ],
            [
              -3.1592131,
              54.9312106
            ],
            [
              -3.1649638,
              54.9384099
            ],
            [
              -3.1785679,
              54.9413681
            ],
            [
              -3.1804347,
              54.9422802
            ],
            [
              -3.1872153,
              54.9489477
            ],
            [
              -3.197794,
              54.949305
            ],
            [
              -3.2012272,
              54.9497733
            ],
            [
              -3.2114411,
              54.9537165
            ],
            [
              -3.2341807,
              54.9518738
            ]
          ]
        ]
      },
      "properties": {
        "id": "geometry-hadrians-wall-openhistoricalmap-main-line",
        "entityId": "entity-hadrians-wall",
        "name": "Hadrian's Wall",
        "geometryRole": "linear-feature",
        "featureClass": "defensive-wall",
        "geometryType": "MultiLineString",
        "validFrom": 122,
        "validTo": 400,
        "temporalMode": "validity",
        "spatialConfidence": "medium",
        "uncertaintyMetres": null,
        "datasetId": "dataset-openhistoricalmap-hadrians-wall",
        "sourceFeatureId": "OHM relation 2692717",
        "sourceIds": [
          "source-openhistoricalmap-relation-2692717"
        ],
        "licence": "CC0-1.0",
        "status": "proposed"
      }
    }
  ]
}
